[{"OBJECT_NAME":"STARLINK-1400","OBJECT_ID":"2020-035AV","EPOCH":"2026-03-09T22:42:08.377920","MEAN_MOTION":15.50591902,"ECCENTRICITY":0.00079016,"INCLINATION":53.0513,"RA_OF_ASC_NODE":21.7292,"ARG_OF_PERICENTER":96.3588,"MEAN_ANOMALY":263.832,"EPHEMERIS_TYPE":0,"CLASSIFICATION_TYPE":"U","NORAD_CAT_ID":45700,"ELEMENT_SET_NO":999,"REV_AT_EPOCH":31938,"BSTAR":0.0019068504,"MEAN_MOTION_DOT":0.00112245,"MEAN_MOTION_DDOT":0},{"OBJECT_NAME":"OBJECT E","OBJECT_ID":"2023-003E","EPOCH":"2026-03-09T22:57:22.229856","MEAN_MOTION":15.50874714,"ECCENTRICITY":0.00052137,"INCLINATION":97.1526,"RA_OF_ASC_NODE":144.7632,"ARG_OF_PERICENTER":115.2688,"MEAN_ANOMALY":244.9106,"EPHEMERIS_TYPE":0,"CLASSIFICATION_TYPE":"U","NORAD_CAT_ID":55137,"ELEMENT_SET_NO":999,"REV_AT_EPOCH":17686,"BSTAR":0.00046048001,"MEAN_MOTION_DOT":0.00026586,"MEAN_MOTION_DDOT":0}]
